[
  {
    "OBJECT_NAME": "STARLINK-30292",
    "OBJECT_ID": "23141E",
    "EPOCH": "2025-11-11T03:28:06.304224",
    "MEAN_MOTION": 15.30201189,
    "ECCENTRICITY": 0.0001558,
    "INCLINATION": 53.162,
    "RA_OF_ASC_NODE": 114.3776,
    "ARG_OF_PERICENTER": 95.2152,
    "MEAN_ANOMALY": 264.9027,
    "EPHEMERIS_TYPE": 0,
    "CLASSIFICATION_TYPE": "U",
    "NORAD_CAT_ID": 57844,
    "ELEMENT_SET_NO": 999,
    "REV_AT_EPOCH": 12218,
    "BSTAR": 2.6989000000000002e-05,
    "MEAN_MOTION_DOT": 4.4e-06,
    "MEAN_MOTION_DDOT": 0.0,
    "TLE_LINE1": "1 57844U 23141E   25315.14451741  .00000440  00000+0  26989-4 0  9997",
    "TLE_LINE2": "2 57844  53.1620 114.3776 0001558  95.2152 264.9027 15.30201189122183",
    "COMMENT": "Grouped by shell and plane from TLE"
  },
  {
    "OBJECT_NAME": "STARLINK-30416",
    "OBJECT_ID": "23141H",
    "EPOCH": "2025-11-10T20:41:39.094656",
    "MEAN_MOTION": 15.30197137,
    "ECCENTRICITY": 0.0001488,
    "INCLINATION": 53.1601,
    "RA_OF_ASC_NODE": 116.1219,
    "ARG_OF_PERICENTER": 82.9312,
    "MEAN_ANOMALY": 277.1858,
    "EPHEMERIS_TYPE": 0,
    "CLASSIFICATION_TYPE": "U",
    "NORAD_CAT_ID": 57847,
    "ELEMENT_SET_NO": 999,
    "REV_AT_EPOCH": 12213,
    "BSTAR": 2.5201e-05,
    "MEAN_MOTION_DOT": 3.87e-06,
    "MEAN_MOTION_DDOT": 0.0,
    "TLE_LINE1": "1 57847U 23141H   25314.86225804  .00000387  00000+0  25201-4 0  9993",
    "TLE_LINE2": "2 57847  53.1601 116.1219 0001488  82.9312 277.1858 15.30197137122130",
    "COMMENT": "Grouped by shell and plane from TLE"
  },
  {
    "OBJECT_NAME": "STARLINK-30426",
    "OBJECT_ID": "23141J",
    "EPOCH": "2025-11-11T03:22:08.005152",
    "MEAN_MOTION": 15.30202598,
    "ECCENTRICITY": 0.0001077,
    "INCLINATION": 53.1562,
    "RA_OF_ASC_NODE": 114.8092,
    "ARG_OF_PERICENTER": 86.5334,
    "MEAN_ANOMALY": 273.579,
    "EPHEMERIS_TYPE": 0,
    "CLASSIFICATION_TYPE": "U",
    "NORAD_CAT_ID": 57848,
    "ELEMENT_SET_NO": 999,
    "REV_AT_EPOCH": 12217,
    "BSTAR": 0.0001194,
    "MEAN_MOTION_DOT": 3.179e-05,
    "MEAN_MOTION_DDOT": 0.0,
    "TLE_LINE1": "1 57848U 23141J   25315.14037043  .00003179  00000+0  11940-3 0  9998",
    "TLE_LINE2": "2 57848  53.1562 114.8092 0001077  86.5334 273.5790 15.30202598122176",
    "COMMENT": "Grouped by shell and plane from TLE"
  },
  {
    "OBJECT_NAME": "STARLINK-30430",
    "OBJECT_ID": "23141K",
    "EPOCH": "2025-11-11T04:27:22.310496",
    "MEAN_MOTION": 15.30188976,
    "ECCENTRICITY": 0.0001112,
    "INCLINATION": 53.1581,
    "RA_OF_ASC_NODE": 114.6241,
    "ARG_OF_PERICENTER": 78.5973,
    "MEAN_ANOMALY": 281.5153,
    "EPHEMERIS_TYPE": 0,
    "CLASSIFICATION_TYPE": "U",
    "NORAD_CAT_ID": 57849,
    "ELEMENT_SET_NO": 999,
    "REV_AT_EPOCH": 12218,
    "BSTAR": 0.00017727000000000002,
    "MEAN_MOTION_DOT": 4.893e-05,
    "MEAN_MOTION_DDOT": 0.0,
    "TLE_LINE1": "1 57849U 23141K   25315.18567489  .00004893  00000+0  17727-3 0  9998",
    "TLE_LINE2": "2 57849  53.1581 114.6241 0001112  78.5973 281.5153 15.30188976122188",
    "COMMENT": "Grouped by shell and plane from TLE"
  },
  {
    "OBJECT_NAME": "STARLINK-30425",
    "OBJECT_ID": "23141L",
    "EPOCH": "2025-11-11T03:26:41.440416",
    "MEAN_MOTION": 15.30197073,
    "ECCENTRICITY": 0.0001185,
    "INCLINATION": 53.1599,
    "RA_OF_ASC_NODE": 114.8346,
    "ARG_OF_PERICENTER": 90.2973,
    "MEAN_ANOMALY": 269.8163,
    "EPHEMERIS_TYPE": 0,
    "CLASSIFICATION_TYPE": "U",
    "NORAD_CAT_ID": 57850,
    "ELEMENT_SET_NO": 999,
    "REV_AT_EPOCH": 12217,
    "BSTAR": 3.9751e-05,
    "MEAN_MOTION_DOT": 8.18e-06,
    "MEAN_MOTION_DDOT": 0.0,
    "TLE_LINE1": "1 57850U 23141L   25315.14353519  .00000818  00000+0  39751-4 0  9998",
    "TLE_LINE2": "2 57850  53.1599 114.8346 0001185  90.2973 269.8163 15.30197073122175",
    "COMMENT": "Grouped by shell and plane from TLE"
  },
  {
    "OBJECT_NAME": "STARLINK-30405",
    "OBJECT_ID": "23141M",
    "EPOCH": "2025-11-10T20:46:12.091008",
    "MEAN_MOTION": 15.30198831,
    "ECCENTRICITY": 0.0001355,
    "INCLINATION": 53.1604,
    "RA_OF_ASC_NODE": 116.1273,
    "ARG_OF_PERICENTER": 88.8183,
    "MEAN_ANOMALY": 271.2973,
    "EPHEMERIS_TYPE": 0,
    "CLASSIFICATION_TYPE": "U",
    "NORAD_CAT_ID": 57851,
    "ELEMENT_SET_NO": 999,
    "REV_AT_EPOCH": 12213,
    "BSTAR": 8.8035e-05,
    "MEAN_MOTION_DOT": 2.249e-05,
    "MEAN_MOTION_DDOT": 0.0,
    "TLE_LINE1": "1 57851U 23141M   25314.86541772  .00002249  00000+0  88035-4 0  9996",
    "TLE_LINE2": "2 57851  53.1604 116.1273 0001355  88.8183 271.2973 15.30198831122137",
    "COMMENT": "Grouped by shell and plane from TLE"
  },
  {
    "OBJECT_NAME": "STARLINK-30431",
    "OBJECT_ID": "23141N",
    "EPOCH": "2025-11-10T21:19:29.159616",
    "MEAN_MOTION": 15.30196458,
    "ECCENTRICITY": 0.0001163,
    "INCLINATION": 53.1605,
    "RA_OF_ASC_NODE": 115.6189,
    "ARG_OF_PERICENTER": 91.8599,
    "MEAN_ANOMALY": 268.2535,
    "EPHEMERIS_TYPE": 0,
    "CLASSIFICATION_TYPE": "U",
    "NORAD_CAT_ID": 57852,
    "ELEMENT_SET_NO": 999,
    "REV_AT_EPOCH": 12213,
    "BSTAR": 2.3821e-05,
    "MEAN_MOTION_DOT": 3.46e-06,
    "MEAN_MOTION_DDOT": 0.0,
    "TLE_LINE1": "1 57852U 23141N   25314.88853194  .00000346  00000+0  23821-4 0  9991",
    "TLE_LINE2": "2 57852  53.1605 115.6189 0001163  91.8599 268.2535 15.30196458122134",
    "COMMENT": "Grouped by shell and plane from TLE"
  },
  {
    "OBJECT_NAME": "STARLINK-30404",
    "OBJECT_ID": "23141P",
    "EPOCH": "2025-11-10T18:05:18.530016",
    "MEAN_MOTION": 15.30200947,
    "ECCENTRICITY": 0.0001249,
    "INCLINATION": 53.1554,
    "RA_OF_ASC_NODE": 116.198,
    "ARG_OF_PERICENTER": 94.5259,
    "MEAN_ANOMALY": 265.5885,
    "EPHEMERIS_TYPE": 0,
    "CLASSIFICATION_TYPE": "U",
    "NORAD_CAT_ID": 57853,
    "ELEMENT_SET_NO": 999,
    "REV_AT_EPOCH": 12212,
    "BSTAR": 0.0,
    "MEAN_MOTION_DOT": -1.352e-05,
    "MEAN_MOTION_DDOT": 0.0,
    "TLE_LINE1": "1 57853U 23141P   25314.75368669 -.00001352  00000+0 -33522-4 0  9995",
    "TLE_LINE2": "2 57853  53.1554 116.1980 0001249  94.5259 265.5885 15.30200947122127",
    "COMMENT": "Grouped by shell and plane from TLE"
  },
  {
    "OBJECT_NAME": "STARLINK-30412",
    "OBJECT_ID": "23141Q",
    "EPOCH": "2025-11-11T03:44:48.778368",
    "MEAN_MOTION": 15.3019438,
    "ECCENTRICITY": 5.03e-05,
    "INCLINATION": 53.1634,
    "RA_OF_ASC_NODE": 114.4425,
    "ARG_OF_PERICENTER": 154.1656,
    "MEAN_ANOMALY": 205.937,
    "EPHEMERIS_TYPE": 0,
    "CLASSIFICATION_TYPE": "U",
    "NORAD_CAT_ID": 57854,
    "ELEMENT_SET_NO": 999,
    "REV_AT_EPOCH": 12218,
    "BSTAR": 6.1123e-05,
    "MEAN_MOTION_DOT": 1.452e-05,
    "MEAN_MOTION_DDOT": 0.0,
    "TLE_LINE1": "1 57854U 23141Q   25315.15612012  .00001452  00000+0  61123-4 0  9992",
    "TLE_LINE2": "2 57854  53.1634 114.4425 0000503 154.1656 205.9370 15.30194380122184",
    "COMMENT": "Grouped by shell and plane from TLE"
  },
  {
    "OBJECT_NAME": "STARLINK-30392",
    "OBJECT_ID": "23141R",
    "EPOCH": "2025-11-11T03:40:15.593664",
    "MEAN_MOTION": 15.30194075,
    "ECCENTRICITY": 0.0001201,
    "INCLINATION": 53.1619,
    "RA_OF_ASC_NODE": 114.4218,
    "ARG_OF_PERICENTER": 87.8009,
    "MEAN_ANOMALY": 272.313,
    "EPHEMERIS_TYPE": 0,
    "CLASSIFICATION_TYPE": "U",
    "NORAD_CAT_ID": 57855,
    "ELEMENT_SET_NO": 999,
    "REV_AT_EPOCH": 12218,
    "BSTAR": 1.8889e-05,
    "MEAN_MOTION_DOT": 2e-06,
    "MEAN_MOTION_DDOT": 0.0,
    "TLE_LINE1": "1 57855U 23141R   25315.15295826  .00000200  00000+0  18889-4 0  9994",
    "TLE_LINE2": "2 57855  53.1619 114.4218 0001201  87.8009 272.3130 15.30194075122181",
    "COMMENT": "Grouped by shell and plane from TLE"
  },
  {
    "OBJECT_NAME": "STARLINK-30291",
    "OBJECT_ID": "23141S",
    "EPOCH": "2025-11-11T04:13:41.330784",
    "MEAN_MOTION": 15.3020492,
    "ECCENTRICITY": 0.0001348,
    "INCLINATION": 53.159,
    "RA_OF_ASC_NODE": 114.5625,
    "ARG_OF_PERICENTER": 83.7939,
    "MEAN_ANOMALY": 276.3215,
    "EPHEMERIS_TYPE": 0,
    "CLASSIFICATION_TYPE": "U",
    "NORAD_CAT_ID": 57856,
    "ELEMENT_SET_NO": 999,
    "REV_AT_EPOCH": 12218,
    "BSTAR": 0.00019681,
    "MEAN_MOTION_DOT": 5.475e-05,
    "MEAN_MOTION_DDOT": 0.0,
    "TLE_LINE1": "1 57856U 23141S   25315.17617281  .00005475  00000+0  19681-3 0  9999",
    "TLE_LINE2": "2 57856  53.1590 114.5625 0001348  83.7939 276.3215 15.30204920122181",
    "COMMENT": "Grouped by shell and plane from TLE"
  },
  {
    "OBJECT_NAME": "STARLINK-30290",
    "OBJECT_ID": "23141U",
    "EPOCH": "2025-11-11T03:53:55.992768",
    "MEAN_MOTION": 15.30226154,
    "ECCENTRICITY": 0.0001152,
    "INCLINATION": 53.1644,
    "RA_OF_ASC_NODE": 114.481,
    "ARG_OF_PERICENTER": 262.681,
    "MEAN_ANOMALY": 97.4059,
    "EPHEMERIS_TYPE": 0,
    "CLASSIFICATION_TYPE": "U",
    "NORAD_CAT_ID": 57858,
    "ELEMENT_SET_NO": 999,
    "REV_AT_EPOCH": 12218,
    "BSTAR": 0.0,
    "MEAN_MOTION_DOT": -0.00011582,
    "MEAN_MOTION_DDOT": 0.0,
    "TLE_LINE1": "1 57858U 23141U   25315.16245362 -.00011582  00000+0 -37922-3 0  9993",
    "TLE_LINE2": "2 57858  53.1644 114.4810 0001152 262.6810  97.4059 15.30226154122188",
    "COMMENT": "Grouped by shell and plane from TLE"
  },
  {
    "OBJECT_NAME": "STARLINK-30414",
    "OBJECT_ID": "23141V",
    "EPOCH": "2025-11-11T03:49:22.612800",
    "MEAN_MOTION": 15.30197154,
    "ECCENTRICITY": 0.0001269,
    "INCLINATION": 53.1582,
    "RA_OF_ASC_NODE": 114.4602,
    "ARG_OF_PERICENTER": 84.3543,
    "MEAN_ANOMALY": 275.7602,
    "EPHEMERIS_TYPE": 0,
    "CLASSIFICATION_TYPE": "U",
    "NORAD_CAT_ID": 57859,
    "ELEMENT_SET_NO": 999,
    "REV_AT_EPOCH": 12218,
    "BSTAR": 0.0,
    "MEAN_MOTION_DOT": -1.276e-05,
    "MEAN_MOTION_DDOT": 0.0,
    "TLE_LINE1": "1 57859U 23141V   25315.15928950 -.00001276  00000+0 -30965-4 0  9994",
    "TLE_LINE2": "2 57859  53.1582 114.4602 0001269  84.3543 275.7602 15.30197154122182",
    "COMMENT": "Grouped by shell and plane from TLE"
  }
]